[{"OBJECT_NAME":"ONEWEB-0425","OBJECT_ID":"2022-012G","EPOCH":"2026-03-09T22:03:40.551840","MEAN_MOTION":13.10374846,"ECCENTRICITY":0.0001593,"INCLINATION":87.8784,"RA_OF_ASC_NODE":56.0277,"ARG_OF_PERICENTER":76.7976,"MEAN_ANOMALY":283.3329,"EPHEMERIS_TYPE":0,"CLASSIFICATION_TYPE":"U","NORAD_CAT_ID":51628,"ELEMENT_SET_NO":999,"REV_AT_EPOCH":19632,"BSTAR":-0.0016151708,"MEAN_MOTION_DOT":-5.51e-6,"MEAN_MOTION_DDOT":0},{"OBJECT_NAME":"FENGYUN 1C DEB","OBJECT_ID":"1999-025BGM","EPOCH":"2026-03-09T09:04:01.860384","MEAN_MOTION":13.5424696,"ECCENTRICITY":0.02905999,"INCLINATION":99.2364,"RA_OF_ASC_NODE":44.7947,"ARG_OF_PERICENTER":108.5729,"MEAN_ANOMALY":254.7207,"EPHEMERIS_TYPE":0,"CLASSIFICATION_TYPE":"U","NORAD_CAT_ID":31091,"ELEMENT_SET_NO":999,"REV_AT_EPOCH":62812,"BSTAR":0.00098695444,"MEAN_MOTION_DOT":8.41e-6,"MEAN_MOTION_DDOT":0}]
